#aV2007 11 21  0  0   .00000000      96 DD+AD WGS84 FIT  NGA
## 1454 259200.00000000   900.00000000 54425  .0000000000000
+   31     1  2  3  4  5  6  7  8  9 10 11 12 13 14 15 16 17
+         18 19 20 21 22 23 24 25 26 27 28 30 31 32  0  0  0
+          0  0  0  0  0  0  0  0  0  0  0  0  0  0  0  0  0
+          0  0  0  0  0  0  0  0  0  0  0  0  0  0  0  0  0
+          0  0  0  0  0  0  0  0  0  0  0  0  0  0  0  0  0
++         0  0  0  0  0  0  0  0  0  0  0  0  0  0  0  0  0
++         0  0  0  0  0  0  0  0  0  0  0  0  0  0  0  0  0
++         0  0  0  0  0  0  0  0  0  0  0  0  0  0  0  0  0
++         0  0  0  0  0  0  0  0  0  0  0  0  0  0  0  0  0
++         0  0  0  0  0  0  0  0  0  0  0  0  0  0  0  0  0
%c cc cc ccc ccc cccc cccc cccc cccc ccccc ccccc ccccc ccccc
%c cc cc ccc ccc cccc cccc cccc cccc ccccc ccccc ccccc ccccc
%f  0.0000000  0.000000000  0.00000000000  0.000000000000000
%f  0.0000000  0.000000000  0.00000000000  0.000000000000000
%i    0    0    0    0      0      0      0      0         0
%i    0    0    0    0      0      0      0      0         0
/*      NGA, ST. LOUIS,MO.                                  
/*   EPHEMERIS COMPUTED FROM  3 DAYS OF DATA                
/* CCCCCCCCCCCCCCCCCCCCCCCCCCCCCCCCCCCCCCCCCCCCCCCCCCCCCCCCC
/* CCCCCCCCCCCCCCCCCCCCCCCCCCCCCCCCCCCCCCCCCCCCCCCCCCCCCCCCC
*  2007 11 21 21  0   .00000000                                                 
P  1  -4223.578865  15225.180958  21552.786218    167.975089                    
V  1 -26374.157836   4716.151009  -8662.773541       .022950                    
P  2  -9990.505251 -21858.091875  11457.706772    152.814851                    
V  2  12240.042790   8644.187198  26412.294897       .027982                    
P  3   7563.336162  14313.784641 -21315.015473    147.515533                    
V  3 -24961.097253   9290.061506  -2300.704975       .054037                    
P  4   2087.424415 -17977.387625  19236.631917    -27.333968                    
V  4  18302.489206  16777.809875  13997.480300      -.045309                    
P  5 -15719.432340    216.464520  21135.314384    553.649141                    
V  5   4588.405547 -27159.641155   3785.477398       .230384                    
P  6 -25688.630571   6737.653164   1131.811623    211.426043                    
V  6    141.316727  -3855.577382  31071.428635      -.097112                    
P  7 -24916.529509   9102.035000  -1321.065523    -23.726072                    
V  7  -3089.836678  -2802.714034  31088.827828       .021757                    
P  8   9616.512822 -11399.839979 -22048.586632   -130.597382                    
V  8  18644.221708  20530.612498  -2948.624160      -.013332                    
P  9 -21372.663134 -14329.724415   6332.091654     97.717008                    
V  9  -4707.008048  -7816.409347 -30448.359992       .017019                    
P 10  -3157.003574 -22322.664576 -13896.211749   -150.168403                    
V 10   7310.553362 -16125.585290  24768.865709      -.120071                    
P 11  23762.790159   9716.733823   7279.495713     26.095475                    
V 11   5159.526623   9040.004802 -28069.225075       .003279                    
P 12 -13915.745665  -6514.786801  21759.081948   -349.048050                    
V 12   7639.265533 -26319.561594  -2940.254820      -.012275                    
P 13  25789.380631  -6208.412438  -1163.583389    222.737134                    
V 13   1676.287428   1420.328676  32469.313871       .026223                    
P 14 -15787.149288  14314.892939  15888.059773   -318.426755                    
V 14 -19779.546843   3097.229552 -22679.161808       .026118                    
P 15 -17766.080412  -8302.028657 -17871.658792    -78.796376                    
V 15  21578.503810  -7464.807778 -17980.911959       .058805                    
P 16   -696.309517  24771.541600  -9256.176389    125.863894                    
V 16  -5904.186458  10656.846744  28905.066351       .016943                    
P 17  16619.564111 -14603.742833  14606.740688     48.421821                    
V 17  18572.748159  -2265.788946 -23565.324554      -.009533                    
P 18 -16329.187761  12754.670670 -16247.004004   -224.110735                    
V 18   4288.585648 -20805.787657 -20776.012383       .023254                    
P 19  17592.495340   9331.844945 -17563.178213      8.196991                    
V 19 -21752.091727   5690.436590 -18522.517476       .020176                    
P 20  15122.711109   3021.812035  21520.586041    125.821733                    
V 20  -6955.270060  26721.531698   1170.705586      -.006567                    
P 21 -17484.478867   2493.235235 -19846.827231     76.260162                    
V 21 -16472.353213 -19431.095341  11392.733476      -.004576                    
P 22 -11608.337446  23265.181382  -5155.867395    203.579934                    
V 22   -898.605525  -7430.268574 -30579.665635       .007597                    
P 23  24389.268857   1356.858794  10643.516571    311.348626                    
V 23 -12615.354058   5265.549999  27834.938835       .033953                    
P 24 -20667.396138  -8652.078687 -13847.606675     47.897839                    
V 24  -9985.862836 -15227.645405  24380.952021       .029036                    
P 25  20145.656012   1755.012231 -16775.675594    482.267088                    
V 25  15572.476515  15745.129171  20069.085112       .051556                    
P 26 -15107.037483 -10132.683271 -20005.200659    102.467232                    
V 26  23542.818683  -5422.017462 -14849.551977       .119748                    
P 27  16414.984771  -3684.210774 -19946.840177    149.262738                    
V 27  19121.522212  18718.868920  11699.026810       .024866                    
P 28  12537.442401 -21645.279213  -8035.748783    -10.741668                    
V 28   -373.546052  11166.748482 -29726.902407      -.006231                    
P 30 -16137.398000   7180.892845  19475.245455     53.317919                    
V 30   4539.378249 -25163.582440  12920.441942       .014270                    
P 31    977.974400  19223.888323  18469.589021      1.475295                    
V 31 -17187.634681 -15432.183929  17236.989122      -.014790                    
P 32  -5779.673911  25574.802701   5171.678437    146.390804                    
V 32  -4163.790840   4787.282559 -31007.485994       .132226                    
EOF
